[Satellite]
VERSION=1.1
NAME=FLOCK 3P-8
NICKNAME=FLOCK 3P-8
TLE1=1 41951U 17008D   18020.89009162  .00002882  00000-0  12251-3 0  9996
TLE2=2 41951  97.4690  86.4801 0009438 141.9414 218.2491 15.23819898 51672
